OBJECT_NAME,OBJECT_ID,EPOCH,MEAN_MOTION,ECCENTRICITY,INCLINATION,RA_OF_ASC_NODE,ARG_OF_PERICENTER,MEAN_ANOMALY,EPHEMERIS_TYPE,CLASSIFICATION_TYPE,NORAD_CAT_ID,ELEMENT_SET_NO,REV_AT_EPOCH,BSTAR,MEAN_MOTION_DOT,MEAN_MOTION_DDOT
ARIANE 40+ R/B,1995-021B,2026-06-30T16:39:58.086720,14.39840658,.0007308,98.4408,251.5740,154.5675,7.7992,0,U,23561,999,63550,.99457E-4,.269E-5,0
SL-16 R/B,1995-058B,2026-06-30T11:43:32.690784,14.15511390,.00145542,71.0229,303.4314,302.1108,57.8602,0,U,23705,999,58381,-.78835785E-4,-.202E-5,0
SL-16 R/B,1996-051B,2026-06-30T11:41:22.529184,14.12450647,.00166187,70.7654,296.5019,317.7414,42.2424,0,U,24298,999,53757,.1022439E-3,.14E-5,0
ORBVIEW 2 (SEASTAR),1997-037A,2026-06-30T11:19:31.714176,14.35560207,.00033327,98.8698,348.8597,89.8803,270.2764,0,U,24883,999,52465,.10032777E-3,.242E-5,0
SL-16 R/B,1998-043G,2026-06-30T20:01:06.663360,14.26070763,.0010727,98.8371,136.1111,50.6799,309.5330,0,U,25400,999,45511,.35383E-4,.39E-6,0
SL-16 R/B,1998-045B,2026-06-30T17:26:27.832128,14.16206025,.0008827,71.0126,303.8547,224.4904,135.5511,0,U,25407,999,44310,.14421E-3,.238E-5,0
ISS (ZARYA),1998-067A,2026-06-30T19:10:10.831008,15.49493260,.0004333,51.6310,232.7115,251.8365,108.2152,0,U,25544,999,57386,.11188E-3,.5824E-4,0
CZ-4B R/B,1999-025C,2026-06-30T13:27:46.104192,14.18285627,.00374695,98.6477,223.0626,21.8856,135.4833,0,U,25732,999,40416,.43443441E-4,.47E-6,0
OKEAN-O,1999-039A,2026-06-30T14:16:14.162304,14.80482731,.0001223,97.9310,240.2383,70.1897,289.9446,0,U,25860,999,45109,.82099E-4,.576E-5,0
SL-16 R/B,1999-039B,2026-06-30T16:06:53.373312,14.81858131,.0013458,97.9833,240.4959,248.7377,111.2399,0,U,25861,999,45359,.71503E-4,.512E-5,0
DELTA 2 R/B,1999-041E,2026-06-30T11:34:33.137472,14.12040959,.05010571,51.7621,210.6838,321.3100,35.2912,0,U,25876,999,37896,.23075768E-3,.1199E-4,0
HELIOS 1B,1999-064A,2026-06-30T06:59:25.159488,14.88040231,.00024164,98.1603,86.8098,72.6759,287.4721,0,U,25977,999,70200,.15919551E-3,.1404E-4,0
TERRA,1999-068A,2026-06-30T19:04:32.487744,14.61113696,.0002613,97.9449,230.8012,152.6121,333.6122,0,U,25994,999,41159,.91177E-4,.404E-5,0
SL-16 R/B,2000-006B,2026-06-30T11:43:53.657472,14.15840386,.00163982,71.0013,220.6566,1.8628,358.2553,0,U,26070,999,36452,.90613785E-4,.131E-5,0
TITAN 4B R/B,2000-047B,2026-06-30T18:28:13.122048,15.10270110,.0045867,67.9890,82.3409,273.4100,86.1804,0,U,26474,999,40998,.16527E-3,.2638E-4,0
ENVISAT,2002-009A,2026-06-30T20:51:44.857152,14.39067858,.0001382,98.3840,132.8829,85.7542,295.4185,0,U,27386,999,27545,.39661E-4,.8E-6,0
IDEFIX & ARIANE 42P R/B,2002-021B,2026-06-30T19:59:58.106688,14.31088196,.0011021,98.5943,119.1687,209.8360,150.2196,0,U,27422,999,26020,.98458E-4,.216E-5,0
AQUA,2002-022A,2026-06-30T20:52:40.803744,14.62178349,.0000696,98.4284,151.4267,74.9809,306.6103,0,U,27424,999,28527,.16162E-3,.764E-5,0
CZ-4B R/B,2002-024C,2026-06-30T13:24:18.775296,14.14566409,.00510772,98.8693,234.2915,63.0494,102.3867,0,U,27432,999,24519,.46935802E-4,.47E-6,0
MIDORI II (ADEOS-II),2002-056A,2026-06-30T10:31:12.239904,14.29356413,.00019929,98.7885,140.8112,58.8087,301.3290,0,U,27597,999,22640,.10944878E-3,.233E-5,0
H-2A R/B,2002-056E,2026-06-30T19:42:09.940032,14.33827760,.0069944,98.3318,137.9989,183.5777,195.9335,0,U,27601,999,23032,.82572E-4,.194E-5,0
CZ-4B R/B,2003-049C,2026-06-30T10:24:45.627552,14.55108137,.00469665,98.6900,180.8079,247.1298,112.4936,0,U,28059,999,20299,.73119712E-4,.268E-5,0
CZ-2C R/B,2004-012C,2026-06-30T18:35:08.050272,15.81773219,.0010884,97.7076,259.0453,235.1434,124.8810,0,U,28222,999,22204,.67577E-3,.1378E-2,0
SL-16 R/B,2004-021B,2026-06-29T21:20:49.651584,14.14608960,.00067319,71.0009,357.0300,238.8876,121.1587,0,U,28353,999,13870,.14827288E-3,.237E-5,0
CZ-4B R/B,2004-035C,2026-06-30T14:22:38.911872,15.30808982,.0028883,97.3357,214.5224,287.7282,72.0807,0,U,28415,999,19717,.23536E-3,.7018E-4,0
CZ-2C R/B,2004-046B,2026-06-30T17:22:43.466016,14.27029546,.013926,98.1934,89.6584,180.0781,180.0403,0,U,28480,999,12462,.50986E-4,.97E-6,0
ARIANE 5 R/B,2004-049H,2026-06-30T11:13:06.231072,14.85464260,.00835121,98.2729,354.2340,346.4676,13.4298,0,U,28499,999,16253,.66573757E-4,.545E-5,0
CZ-2D R/B,2005-024B,2026-06-30T14:26:34.960992,15.71047423,.0000745,97.3472,201.7131,357.6269,2.4990,0,U,28738,999,15744,.49777E-3,.6261E-3,0
ALOS (DAICHI),2006-002A,2026-06-30T10:21:03.554496,14.70076296,.00009596,98.1330,136.9579,60.7063,299.4238,0,U,28931,999,9004,.18444089E-3,.1058E-4,0
H-2A R/B,2006-002B,2026-06-30T10:25:45.221952,15.18237775,.00499715,98.2577,338.4639,216.3885,143.3947,0,U,28932,999,11153,.35610741E-3,.7449E-4,0
